GSAT0101 (GALILEO-PFM)  
1 37846U 11060A   26177.23375949 -.00000096  00000+0  00000+0 0  9995
2 37846  56.9911 341.5158 0002838  55.8370 304.1849  1.70475865 91278
GSAT0203 (GALILEO 7)    
1 40544U 15017A   26177.59813449 -.00000096  00000+0  00000+0 0  9991
2 40544  56.7831 341.3391 0002130 269.4919  90.4779  1.70476365 69368
GSAT0211 (GALILEO 14)   
1 41549U 16030A   26178.35493910  .00000067  00000+0  00000+0 0  9992
2 41549  55.0928 221.4150 0003113 320.4924  39.5806  1.70474008 62843
GSAT0207 (GALILEO 15)   
1 41859U 16069A   26177.71738502 -.00000038  00000+0  00000+0 0  9995
2 41859  55.5042 100.8225 0005006 333.0982  26.8500  1.70473700 59562
GSAT0223 (GALILEO 27)   
1 49809U 21116A   26174.44047914 -.00000098  00000+0  00000+0 0  9990
2 49809  57.1590 341.5051 0001600 183.5383 174.0725  1.70476308 28288
GSAT0224 (GALILEO 28)   
1 49810U 21116B   26178.36614440 -.00000094  00000+0  00000+0 0  9997
2 49810  57.1577 341.3987 0001419 161.6476 197.8652  1.70476529 28376
